ORBCOMM FM103           
1 40091U 14040F   25011.39194436  .00001239  00000+0  30563-3 0  9995
2 40091  47.0065  38.0435 0002948 284.4961  75.5597 14.57680189558283
ORBCOMM FM114           
1 41179U 15081A   25011.28212154  .00001430  00000+0  34677-3 0  9998
2 41179  47.0036 307.7124 0002478 343.0578  17.0224 14.57747351481620
ORBCOMM FM119           
1 41180U 15081B   25010.57641518  .00001073  00000+0  26981-3 0  9993
2 41180  46.9989 220.2927 0000659  55.3931 304.7016 14.57652066482727
ORBCOMM FM105           
1 41181U 15081C   25010.79201672  .00000454  00000+0  17384-3 0  9990
2 41181  46.9997 209.0497 0001732 319.2926  40.7824 14.44962591478095
ORBCOMM FM110           
1 41182U 15081D   25010.84630826  .00001980  00000+0  46533-3 0  9997
2 41182  47.0020 309.1373 0000969 139.5179 220.5779 14.57797526481565
ORBCOMM FM118           
1 41183U 15081E   25010.55330038  .00001964  00000+0  46257-3 0  9993
2 41183  47.0044 310.9190 0001411 132.2760 227.8245 14.57721963481445
ORBCOMM FM112           
1 41184U 15081F   25010.82690249  .00001105  00000+0  27696-3 0  9990
2 41184  46.9973 218.2811 0000435 356.5923   3.4959 14.57625135482751
ORBCOMM FM113           
1 41185U 15081G   25010.59862672  .00001324  00000+0  32393-3 0  9999
2 41185  46.9991 219.6657 0000644  65.6630 294.4323 14.57707455482652
